$$SOE
2460721.500000000, A.D. 2025-Feb-15 00:00:00.0000, -1.666369453927300E+08, 3.145630533763243E+08, 2.405314601293395E+07,
2460728.500000000, A.D. 2025-Feb-22 00:00:00.0000, -1.777653032822393E+08, 3.114408892957450E+08, 2.375837317347072E+07,
2460735.500000000, A.D. 2025-Mar-01 00:00:00.0000, -1.887077140902303E+08, 3.079930661073491E+08, 2.343874399018949E+07,
2460742.500000000, A.D. 2025-Mar-08 00:00:00.0000, -1.994569166102602E+08, 3.042300178074750E+08, 2.309511275054310E+07,
2460749.500000000, A.D. 2025-Mar-15 00:00:00.0000, -2.100061583312635E+08, 3.001620849237126E+08, 2.272832399895835E+07,
2460756.500000000, A.D. 2025-Mar-22 00:00:00.0000, -2.203491696691872E+08, 2.957995014599048E+08, 2.233921183986391E+07,
2460763.500000000, A.D. 2025-Mar-29 00:00:00.0000, -2.304801378736626E+08, 2.911523817563620E+08, 2.192859909921545E+07,
2460770.500000000, A.D. 2025-Apr-05 00:00:00.0000, -2.403936803300538E+08, 2.862307101834402E+08, 2.149729655330089E+07,
2460777.500000000, A.D. 2025-Apr-12 00:00:00.0000, -2.500848192124766E+08, 2.810443335758953E+08, 2.104610239345825E+07,
2460784.500000000, A.D. 2025-Apr-19 00:00:00.0000, -2.595489576853299E+08, 2.756029553429497E+08, 2.057580185659082E+07,
2460791.500000000, A.D. 2025-Apr-26 00:00:00.0000, -2.687818573806587E+08, 2.699161308797176E+08, 2.008716696618083E+07,
2460798.500000000, A.D. 2025-May-03 00:00:00.0000, -2.777796170281051E+08, 2.639932641430719E+08, 1.958095636251125E+07,
2460805.500000000, A.D. 2025-May-10 00:00:00.0000, -2.865386521915258E+08, 2.578436052591536E+08, 1.905791520895761E+07,
2460812.500000000, A.D. 2025-May-17 00:00:00.0000, -2.950556760516699E+08, 2.514762489932987E+08, 1.851877515750131E+07,
2460819.500000000, A.D. 2025-May-24 00:00:00.0000, -3.033276810318829E+08, 2.449001339118096E+08, 1.796425434395517E+07,
2460826.500000000, A.D. 2025-May-31 00:00:00.0000, -3.113519208159722E+08, 2.381240424413635E+08, 1.739505739182881E+07,
2460833.500000000, A.D. 2025-Jun-07 00:00:00.0000, -3.191258931240382E+08, 2.311566029357561E+08, 1.681187555275874E+07,
2460840.500000000, A.D. 2025-Jun-14 00:00:00.0000, -3.266473255757781E+08, 2.240062929991939E+08, 1.621538713931090E+07,
2460847.500000000, A.D. 2025-Jun-21 00:00:00.0000, -3.339141633859527E+08, 2.166814407217171E+08, 1.560625786533961E+07,
2460854.500000000, A.D. 2025-Jun-28 00:00:00.0000, -3.409245557196819E+08, 2.091902255218114E+08, 1.498514094610800E+07,
2460861.500000000, A.D. 2025-Jul-05 00:00:00.0000, -3.476768421850867E+08, 2.015406806880237E+08, 1.435267726898283E+07,
2460868.500000000, A.D. 2025-Jul-12 00:00:00.0000, -3.541695406189043E+08, 1.937406967612015E+08, 1.370949567399380E+07,
2460875.500000000, A.D. 2025-Jul-19 00:00:00.0000, -3.604013359375802E+08, 1.857980251361549E+08, 1.305621327627514E+07,
2460882.500000000, A.D. 2025-Jul-26 00:00:00.0000, -3.663710698055508E+08, 1.777202817837285E+08, 1.239343580341246E+07,
2460889.500000000, A.D. 2025-Aug-02 00:00:00.0000, -3.720777310185742E+08, 1.695149510769152E+08, 1.172175794077060E+07,
2460896.500000000, A.D. 2025-Aug-09 00:00:00.0000, -3.775204465435650E+08, 1.611893896730265E+08, 1.104176367913438E+07,
2460903.500000000, A.D. 2025-Aug-16 00:00:00.0000, -3.826984731042950E+08, 1.527508303595521E+08, 1.035402665045565E+07,
2460910.500000000, A.D. 2025-Aug-23 00:00:00.0000, -3.876111889879375E+08, 1.442063858546761E+08, 9.659110424553327E+06,
2460917.500000000, A.D. 2025-Aug-30 00:00:00.0000, -3.922580857124072E+08, 1.355630532538931E+08, 8.957568793567583E+06,
2460924.500000000, A.D. 2025-Sep-06 00:00:00.0000, -3.966387609437649E+08, 1.268277201027659E+08, 8.249946254798360E+06,
2460931.500000000, A.D. 2025-Sep-13 00:00:00.0000, -4.007529143093292E+08, 1.180071695962234E+08, 7.536778641168758E+06,
2460938.500000000, A.D. 2025-Sep-20 00:00:00.0000, -4.046003428083020E+08, 1.091080832476335E+08, 6.818593463893212E+06,
2460945.500000000, A.D. 2025-Sep-27 00:00:00.0000, -4.081809347336274E+08, 1.001370441269256E+08, 6.095910124076910E+06,
2460952.500000000, A.D. 2025-Oct-04 00:00:00.0000, -4.114946640982382E+08, 9.110054119412595E+07, 5.369240221687786E+06,
2460959.500000000, A.D. 2025-Oct-11 00:00:00.0000, -4.145415859206143E+08, 8.200497377655073E+07, 4.639087918355335E+06,
2460966.500000000, A.D. 2025-Oct-18 00:00:00.0000, -4.173218320668313E+08, 7.285665591007766E+07, 3.905950304960687E+06,
2460973.500000000, A.D. 2025-Oct-25 00:00:00.0000, -4.198356074889995E+08, 6.366182055134241E+07, 3.170317761700228E+06,
2460980.500000000, A.D. 2025-Nov-01 00:00:00.0000, -4.220831867998034E+08, 5.442662367208894E+07, 2.432674307975199E+06,
2460987.500000000, A.D. 2025-Nov-08 00:00:00.0000, -4.240649111288134E+08, 4.515714819926564E+07, 1.693497936167644E+06,
2460994.500000000, A.D. 2025-Nov-15 00:00:00.0000, -4.257811850958740E+08, 3.585940773673838E+07, 9.532609107505977E+05,
2461001.500000000, A.D. 2025-Nov-22 00:00:00.0000, -4.272324734858966E+08, 2.653935028395128E+07, 2.124300134806186E+05,
2461008.500000000, A.D. 2025-Nov-29 00:00:00.0000, -4.284192977680380E+08, 1.720286308380457E+07, -5.285331589320069E+05,
2461015.500000000, A.D. 2025-Dec-06 00:00:00.0000, -4.293422347280623E+08, 7.855778462760774E+06, -1.269171647404298E+06,
2461022.500000000, A.D. 2025-Dec-13 00:00:00.0000, -4.300019167732270E+08, -1.496122706372578E+06, -2.009032649025205E+06,
2461029.500000000, A.D. 2025-Dec-20 00:00:00.0000, -4.303990304078061E+08, -1.084710889292168E+07, -2.747667338469146E+06,
2461036.500000000, A.D. 2025-Dec-27 00:00:00.0000, -4.305343139408660E+08, -2.019149455488837E+07, -3.484630681766116E+06,
2461043.500000000, A.D. 2026-Jan-03 00:00:00.0000, -4.304085558752027E+08, -2.952363615970086E+07, -4.219481158790467E+06,
2461050.500000000, A.D. 2026-Jan-10 00:00:00.0000, -4.300225938612530E+08, -3.883792825823622E+07, -4.951780460068816E+06,
2461057.500000000, A.D. 2026-Jan-17 00:00:00.0000, -4.293773139781247E+08, -4.812879970227834E+07, -5.681093186644314E+06,
2461064.500000000, A.D. 2026-Jan-24 00:00:00.0000, -4.284736502584836E+08, -5.739070998089190E+07, -6.406986558076739E+06,
2461071.500000000, A.D. 2026-Jan-31 00:00:00.0000, -4.273125844290417E+08, -6.661814568141748E+07, -7.129030131099425E+06,
2461078.500000000, A.D. 2026-Feb-07 00:00:00.0000, -4.258951458012568E+08, -7.580561713082610E+07, -7.846795539039139E+06,
2461085.500000000, A.D. 2026-Feb-14 00:00:00.0000, -4.242224110562140E+08, -8.494765523110723E+07, -8.559856276255351E+06,
2461092.500000000, A.D. 2026-Feb-21 00:00:00.0000, -4.222955035337619E+08, -9.403880791002908E+07, -9.267787515774146E+06,
2461099.500000000, A.D. 2026-Feb-28 00:00:00.0000, -4.201155931087288E+08, -1.030736350325653E+08, -9.970165766165093E+06,
2461106.500000000, A.D. 2026-Mar-07 00:00:00.0000, -4.176838987122970E+08, -1.120467037228708E+08, -1.066656833819935E+07,
2461113.500000000, A.D. 2026-Mar-14 00:00:00.0000, -4.150016907251618E+08, -1.209525864294889E+08, -1.135657306664117E+07,
2461120.500000000, A.D. 2026-Mar-21 00:00:00.0000, -4.120702914616688E+08, -1.297858588338221E+08, -1.203975821370415E+07,
2461127.500000000, A.D. 2026-Mar-28 00:00:00.0000, -4.088910757539909E+08, -1.385410965711032E+08, -1.271570228540619E+07,
2461134.500000000, A.D. 2026-Apr-04 00:00:00.0000, -4.054654722401786E+08, -1.472128717293172E+08, -1.338398378414700E+07,
2461141.500000000, A.D. 2026-Apr-11 00:00:00.0000, -4.017949650844573E+08, -1.557957494867568E+08, -1.404418095200814E+07,
2461148.500000000, A.D. 2026-Apr-18 00:00:00.0000, -3.978810959737238E+08, -1.642842848954479E+08, -1.469587151981645E+07,
2461155.500000000, A.D. 2026-Apr-25 00:00:00.0000, -3.937254663475924E+08, -1.726730197966006E+08, -1.533863246474050E+07,
2461162.500000000, A.D. 2026-May-02 00:00:00.0000, -3.893297398349155E+08, -1.809564798996018E+08, -1.597203978145398E+07,
2461169.500000000, A.D. 2026-May-09 00:00:00.0000, -3.846956447770625E+08, -1.891291720936614E+08, -1.659566828364419E+07,
2461176.500000000, A.D. 2026-May-16 00:00:00.0000, -3.798249764663972E+08, -1.971855818571603E+08, -1.720909145932963E+07,
2461183.500000000, A.D. 2026-May-23 00:00:00.0000, -3.747195990555207E+08, -2.051201697457428E+08, -1.781188130142307E+07,
2461190.500000000, A.D. 2026-May-30 00:00:00.0000, -3.693814492235016E+08, -2.129273666434147E+08, -1.840360789719576E+07,
2461197.500000000, A.D. 2026-Jun-06 00:00:00.0000, -3.638125419256839E+08, -2.206015710556455E+08, -1.898383901582780E+07,
2461204.500000000, A.D. 2026-Jun-13 00:00:00.0000, -3.580149745730677E+08, -2.281371482516641E+08, -1.955214001499565E+07,
2461211.500000000, A.D. 2026-Jun-20 00:00:00.0000, -3.519909301543378E+08, -2.355284283346021E+08, -2.010807378218135E+07,
2461218.500000000, A.D. 2026-Jun-27 00:00:00.0000, -3.457426810093915E+08, -2.427697035837302E+08, -2.065120058331296E+07,
2461225.500000000, A.D. 2026-Jul-04 00:00:00.0000, -3.392725932645253E+08, -2.498552258493690E+08, -2.118107788274647E+07,
2461232.500000000, A.D. 2026-Jul-11 00:00:00.0000, -3.325831316858352E+08, -2.567792041396421E+08, -2.169726016942804E+07,
2461239.500000000, A.D. 2026-Jul-18 00:00:00.0000, -3.256768648688099E+08, -2.635358023821950E+08, -2.219929879637896E+07,
2461246.500000000, A.D. 2026-Jul-25 00:00:00.0000, -3.185564707506037E+08, -2.701191373696285E+08, -2.268674183639067E+07,
2461253.500000000, A.D. 2026-Aug-01 00:00:00.0000, -3.112247424095641E+08, -2.765232769517224E+08, -2.315913396358612E+07,
2461260.500000000, A.D. 2026-Aug-08 00:00:00.0000, -3.036845939528932E+08, -2.827422385278741E+08, -2.361601638527581E+07,
2461267.500000000, A.D. 2026-Aug-15 00:00:00.0000, -2.959390660956693E+08, -2.887699874077123E+08, -2.405692682731417E+07,
2461274.500000000, A.D. 2026-Aug-22 00:00:00.0000, -2.879913322109156E+08, -2.946004338368142E+08, -2.448139940513638E+07,
2461281.500000000, A.D. 2026-Aug-29 00:00:00.0000, -2.798447071572003E+08, -3.002274300796460E+08, -2.488896428442575E+07,
$$EOE